{
    "links": {
        "self": "http://www.neowsapp.com/rest/v1/neo/3991665?api_key=iIulBulltgU6a56xZRHN4H3l9WmuAYTsLGpBGhQ2"
    },
    "id": "3991665",
    "neo_reference_id": "3991665",
    "name": "(2020 DN1)",
    "designation": "2020 DN1",
    "nasa_jpl_url": "http://ssd.jpl.nasa.gov/sbdb.cgi?sstr=3991665",
    "absolute_magnitude_h": 22.632,
    "estimated_diameter": {
        "kilometers": {
            "estimated_diameter_min": 0.079096083,
            "estimated_diameter_max": 0.1768642182
        },
        "meters": {
            "estimated_diameter_min": 79.0960829506,
            "estimated_diameter_max": 176.8642182314
        },
        "miles": {
            "estimated_diameter_min": 0.0491480122,
            "estimated_diameter_max": 0.1098982961
        },
        "feet": {
            "estimated_diameter_min": 259.5015927875,
            "estimated_diameter_max": 580.2632017424
        }
    },
    "is_potentially_hazardous_asteroid": false,
    "close_approach_data": [
        {
            "close_approach_date": "2020-02-07",
            "close_approach_date_full": "2020-Feb-07 04:30",
            "epoch_date_close_approach": 1581049800000,
            "relative_velocity": {
                "kilometers_per_second": "3.0988235422",
                "kilometers_per_hour": "11155.7647518045",
                "miles_per_hour": "6931.7583814754"
            },
            "miss_distance": {
                "astronomical": "0.2323411678",
                "lunar": "90.3807142742",
                "kilometers": "34757743.816192586",
                "miles": "21597460.5198302468"
            },
            "orbiting_body": "Earth"
        },
        {
            "close_approach_date": "2023-02-20",
            "close_approach_date_full": "2023-Feb-20 17:31",
            "epoch_date_close_approach": 1676914260000,
            "relative_velocity": {
                "kilometers_per_second": "2.8227802876",
                "kilometers_per_hour": "10162.0090354147",
                "miles_per_hour": "6314.2772253664"
            },
            "miss_distance": {
                "astronomical": "0.2793323406",
                "lunar": "108.6602804934",
                "kilometers": "41787523.175874522",
                "miles": "25965562.8623395236"
            },
            "orbiting_body": "Earth"
        }
    ],
    "orbital_data": {
        "orbit_id": "8",
        "orbit_determination_date": "2020-04-28 07:10:33",
        "first_observation_date": "2020-02-17",
        "last_observation_date": "2020-03-16",
        "data_arc_in_days": 28,
        "observations_used": 39,
        "orbit_uncertainty": "7",
        "minimum_orbit_intersection": ".221807",
        "jupiter_tisserand_invariant": "3.661",
        "epoch_osculation": "2459000.5",
        "eccentricity": ".4232535416324942",
        "semi_major_axis": "2.059992773931053",
        "inclination": "5.55521585026113",
        "ascending_node_longitude": "199.5177034894577",
        "orbital_period": "1079.933397821571",
        "perihelion_distance": "1.188093536627389",
        "perihelion_argument": "295.8550887080079",
        "aphelion_distance": "2.931892011234718",
        "perihelion_time": "2458888.097975018210",
        "mean_anomaly": "37.46965236473781",
        "mean_motion": ".3333538908289972",
        "equinox": "J2000",
        "orbit_class": {
            "orbit_class_type": "AMO",
            "orbit_class_description": "Near-Earth asteroid orbits similar to that of 1221 Amor",
            "orbit_class_range": "1.017 AU < q (perihelion) < 1.3 AU"
        }
    },
    "is_sentry_object": false
}